[{"OBJECT_NAME":"FLOCK 4G-8","OBJECT_ID":"2025-009E","EPOCH":"2026-03-09T17:22:17.546016","MEAN_MOTION":15.27623414,"ECCENTRICITY":0.00030503,"INCLINATION":97.4045,"RA_OF_ASC_NODE":151.2834,"ARG_OF_PERICENTER":315.2538,"MEAN_ANOMALY":44.8455,"EPHEMERIS_TYPE":0,"CLASSIFICATION_TYPE":"U","NORAD_CAT_ID":62613,"ELEMENT_SET_NO":999,"REV_AT_EPOCH":6372,"BSTAR":0.0005043806,"MEAN_MOTION_DOT":0.00013559,"MEAN_MOTION_DDOT":0},{"OBJECT_NAME":"STARLINK-33958","OBJECT_ID":"2025-093Q","EPOCH":"2026-03-09T09:30:19.335168","MEAN_MOTION":15.27582198,"ECCENTRICITY":0.00014715,"INCLINATION":43.0022,"RA_OF_ASC_NODE":79.8737,"ARG_OF_PERICENTER":260.8576,"MEAN_ANOMALY":99.2109,"EPHEMERIS_TYPE":0,"CLASSIFICATION_TYPE":"U","NORAD_CAT_ID":63850,"ELEMENT_SET_NO":999,"REV_AT_EPOCH":4776,"BSTAR":0.0011217485,"MEAN_MOTION_DOT":0.00030737,"MEAN_MOTION_DDOT":0}]
